SL-16 R/B               
1 25407U 98045B   26091.81140201 -.00000077  00000+0 -14682-4 0  9999
2 25407  71.0092 132.9521 0008142 333.6041  26.4666 14.16193190430379
ISS (ZARYA)             
1 25544U 98067A   26091.87535881  .00008649  00000+0  16662-3 0  9993
2 25544  51.6332 317.7346 0006234 261.1210  98.9072 15.48704904559928
CZ-4B R/B               
1 25732U 99025C   26091.09839970  .00000089  00000+0  63783-4 0  9994
2 25732  98.6580 134.8445 0035972 280.7063 133.2500 14.18269842391347
OKEAN-O                 
1 25860U 99039A   26091.43066538  .00000721  00000+0  10132-3 0  9993
2 25860  97.9395 151.0857 0000883  99.6949 260.4363 14.80371499437753
SL-16 R/B               
1 25861U 99039B   26091.11905802  .00000774  00000+0  10479-3 0  9997
2 25861  97.9918 150.1769 0014809 179.4348 180.6884 14.81762859440187
DELTA 2 R/B             
1 25876U 99041E   26091.59034302  .00000908  00000+0  18557-3 0  9990
2 25876  51.7608 209.7977 0502636  55.9621 308.7995 14.11890378366264
HELIOS 1B               
1 25977U 99064A   26091.71569239  .00001783  00000+0  20174-3 0  9993
2 25977  98.1675 354.6335 0001643  46.1288 314.0062 14.87787759688685
TERRA                   
1 25994U 99068A   26091.88470495  .00000506  00000+0  11221-3 0  9994
2 25994  97.9544 144.4278 0003647 103.7020  68.9562 14.61039412398469
SL-16 R/B               
1 26070U 00006B   26091.62090323  .00000220  00000+0  13593-3 0  9991
2 26070  71.0032  49.6168 0015439 153.8880 206.3025 14.15829762351809
TITAN 4B R/B            
1 26474U 00047B   26091.81890207  .00003998  00000+0  25067-3 0  9998
2 26474  67.9909 335.4640 0040075   8.2486 351.9313 15.09776367396402
ENVISAT                 
1 27386U 02009A   26091.82734740  .00000142  00000+0  59702-4 0  9993
2 27386  98.3767  44.8793 0001213  82.1801 297.4256 14.39045053262504
IDEFIX & ARIANE 42P R/B 
1 27422U 02021B   26091.56932468  .00000324  00000+0  13959-3 0  9991
2 27422  98.5898  29.9058 0012782 117.2271 243.0216 14.31041705247298
