CCSDS_OMM_VERS = 2.0
CREATION_DATE  = 
ORIGINATOR     = 

OBJECT_NAME    = SL-16 R/B
OBJECT_ID      = 1998-045B
CENTER_NAME    = EARTH
REF_FRAME      = TEME
TIME_SYSTEM    = UTC
MEAN_ELEMENT_THEORY = SGP/SGP4

EPOCH          = 2026-04-01T19:28:25.133664
MEAN_MOTION    = 14.16193190
ECCENTRICITY   = .0008142
INCLINATION    = 71.0092
RA_OF_ASC_NODE = 132.9521
ARG_OF_PERICENTER = 333.6041
MEAN_ANOMALY   = 26.4666

EPHEMERIS_TYPE = 0
CLASSIFICATION_TYPE = U
NORAD_CAT_ID   = 25407
ELEMENT_SET_NO = 999
REV_AT_EPOCH   = 43037
BSTAR          = -.14682E-4
MEAN_MOTION_DOT = -.77E-6
MEAN_MOTION_DDOT = 0

CCSDS_OMM_VERS = 2.0
CREATION_DATE  = 
ORIGINATOR     = 

OBJECT_NAME    = ISS (ZARYA)
OBJECT_ID      = 1998-067A
CENTER_NAME    = EARTH
REF_FRAME      = TEME
TIME_SYSTEM    = UTC
MEAN_ELEMENT_THEORY = SGP/SGP4

EPOCH          = 2026-04-01T21:00:31.001184
MEAN_MOTION    = 15.48704904
ECCENTRICITY   = .0006234
INCLINATION    = 51.6332
RA_OF_ASC_NODE = 317.7346
ARG_OF_PERICENTER = 261.1210
MEAN_ANOMALY   = 98.9072

EPHEMERIS_TYPE = 0
CLASSIFICATION_TYPE = U
NORAD_CAT_ID   = 25544
ELEMENT_SET_NO = 999
REV_AT_EPOCH   = 55992
BSTAR          = .16662E-3
MEAN_MOTION_DOT = .8649E-4
MEAN_MOTION_DDOT = 0

CCSDS_OMM_VERS = 2.0
CREATION_DATE  = 
ORIGINATOR     = 

OBJECT_NAME    = CZ-4B R/B
OBJECT_ID      = 1999-025C
CENTER_NAME    = EARTH
REF_FRAME      = TEME
TIME_SYSTEM    = UTC
MEAN_ELEMENT_THEORY = SGP/SGP4

EPOCH          = 2026-04-01T02:21:41.734080
MEAN_MOTION    = 14.18269842
ECCENTRICITY   = .0035972
INCLINATION    = 98.6580
RA_OF_ASC_NODE = 134.8445
ARG_OF_PERICENTER = 280.7063
MEAN_ANOMALY   = 133.2500

EPHEMERIS_TYPE = 0
CLASSIFICATION_TYPE = U
NORAD_CAT_ID   = 25732
ELEMENT_SET_NO = 999
REV_AT_EPOCH   = 39134
BSTAR          = .63783336E-4
MEAN_MOTION_DOT = .89E-6
MEAN_MOTION_DDOT = 0

CCSDS_OMM_VERS = 2.0
CREATION_DATE  = 
ORIGINATOR     = 

OBJECT_NAME    = OKEAN-O
OBJECT_ID      = 1999-039A
CENTER_NAME    = EARTH
REF_FRAME      = TEME
TIME_SYSTEM    = UTC
MEAN_ELEMENT_THEORY = SGP/SGP4

EPOCH          = 2026-04-01T10:20:09.488832
MEAN_MOTION    = 14.80371499
ECCENTRICITY   = .0000883
INCLINATION    = 97.9395
RA_OF_ASC_NODE = 151.0857
ARG_OF_PERICENTER = 99.6949
MEAN_ANOMALY   = 260.4363

EPHEMERIS_TYPE = 0
CLASSIFICATION_TYPE = U
NORAD_CAT_ID   = 25860
ELEMENT_SET_NO = 999
REV_AT_EPOCH   = 43775
BSTAR          = .10132E-3
MEAN_MOTION_DOT = .721E-5
MEAN_MOTION_DDOT = 0

CCSDS_OMM_VERS = 2.0
CREATION_DATE  = 
ORIGINATOR     = 

OBJECT_NAME    = SL-16 R/B
OBJECT_ID      = 1999-039B
CENTER_NAME    = EARTH
REF_FRAME      = TEME
TIME_SYSTEM    = UTC
MEAN_ELEMENT_THEORY = SGP/SGP4

EPOCH          = 2026-04-01T02:51:26.612928
MEAN_MOTION    = 14.81762859
ECCENTRICITY   = .00148095
INCLINATION    = 97.9918
RA_OF_ASC_NODE = 150.1769
ARG_OF_PERICENTER = 179.4348
MEAN_ANOMALY   = 180.6884

EPHEMERIS_TYPE = 0
CLASSIFICATION_TYPE = U
NORAD_CAT_ID   = 25861
ELEMENT_SET_NO = 999
REV_AT_EPOCH   = 44018
BSTAR          = .10478609E-3
MEAN_MOTION_DOT = .774E-5
MEAN_MOTION_DDOT = 0

CCSDS_OMM_VERS = 2.0
CREATION_DATE  = 
ORIGINATOR     = 

OBJECT_NAME    = DELTA 2 R/B
OBJECT_ID      = 1999-041E
CENTER_NAME    = EARTH
REF_FRAME      = TEME
TIME_SYSTEM    = UTC
MEAN_ELEMENT_THEORY = SGP/SGP4

EPOCH          = 2026-04-01T14:10:05.636928
MEAN_MOTION    = 14.11890378
ECCENTRICITY   = .0502636
INCLINATION    = 51.7608
RA_OF_ASC_NODE = 209.7977
ARG_OF_PERICENTER = 55.9621
MEAN_ANOMALY   = 308.7995

EPHEMERIS_TYPE = 0
CLASSIFICATION_TYPE = U
NORAD_CAT_ID   = 25876
ELEMENT_SET_NO = 999
REV_AT_EPOCH   = 36626
BSTAR          = .18557E-3
MEAN_MOTION_DOT = .908E-5
MEAN_MOTION_DDOT = 0

CCSDS_OMM_VERS = 2.0
CREATION_DATE  = 
ORIGINATOR     = 

OBJECT_NAME    = HELIOS 1B
OBJECT_ID      = 1999-064A
CENTER_NAME    = EARTH
REF_FRAME      = TEME
TIME_SYSTEM    = UTC
MEAN_ELEMENT_THEORY = SGP/SGP4

EPOCH          = 2026-04-01T17:10:35.822496
MEAN_MOTION    = 14.87787759
ECCENTRICITY   = .0001643
INCLINATION    = 98.1675
RA_OF_ASC_NODE = 354.6335
ARG_OF_PERICENTER = 46.1288
MEAN_ANOMALY   = 314.0062

EPHEMERIS_TYPE = 0
CLASSIFICATION_TYPE = U
NORAD_CAT_ID   = 25977
ELEMENT_SET_NO = 999
REV_AT_EPOCH   = 68868
BSTAR          = .20174E-3
MEAN_MOTION_DOT = .1783E-4
MEAN_MOTION_DDOT = 0

CCSDS_OMM_VERS = 2.0
CREATION_DATE  = 
ORIGINATOR     = 

OBJECT_NAME    = TERRA
OBJECT_ID      = 1999-068A
CENTER_NAME    = EARTH
REF_FRAME      = TEME
TIME_SYSTEM    = UTC
MEAN_ELEMENT_THEORY = SGP/SGP4

EPOCH          = 2026-04-01T21:13:58.507680
MEAN_MOTION    = 14.61039412
ECCENTRICITY   = .0003647
INCLINATION    = 97.9544
RA_OF_ASC_NODE = 144.4278
ARG_OF_PERICENTER = 103.7020
MEAN_ANOMALY   = 68.9562

EPHEMERIS_TYPE = 0
CLASSIFICATION_TYPE = U
NORAD_CAT_ID   = 25994
ELEMENT_SET_NO = 999
REV_AT_EPOCH   = 39846
BSTAR          = .11221E-3
MEAN_MOTION_DOT = .506E-5
MEAN_MOTION_DDOT = 0

CCSDS_OMM_VERS = 2.0
CREATION_DATE  = 
ORIGINATOR     = 

OBJECT_NAME    = SL-16 R/B
OBJECT_ID      = 2000-006B
CENTER_NAME    = EARTH
REF_FRAME      = TEME
TIME_SYSTEM    = UTC
MEAN_ELEMENT_THEORY = SGP/SGP4

EPOCH          = 2026-04-01T14:54:06.039072
MEAN_MOTION    = 14.15829762
ECCENTRICITY   = .0015439
INCLINATION    = 71.0032
RA_OF_ASC_NODE = 49.6168
ARG_OF_PERICENTER = 153.8880
MEAN_ANOMALY   = 206.3025

EPHEMERIS_TYPE = 0
CLASSIFICATION_TYPE = U
NORAD_CAT_ID   = 26070
ELEMENT_SET_NO = 999
REV_AT_EPOCH   = 35180
BSTAR          = .13593E-3
MEAN_MOTION_DOT = .22E-5
MEAN_MOTION_DDOT = 0

CCSDS_OMM_VERS = 2.0
CREATION_DATE  = 
ORIGINATOR     = 

OBJECT_NAME    = TITAN 4B R/B
OBJECT_ID      = 2000-047B
CENTER_NAME    = EARTH
REF_FRAME      = TEME
TIME_SYSTEM    = UTC
MEAN_ELEMENT_THEORY = SGP/SGP4

EPOCH          = 2026-04-01T19:39:13.138848
MEAN_MOTION    = 15.09776367
ECCENTRICITY   = .0040075
INCLINATION    = 67.9909
RA_OF_ASC_NODE = 335.4640
ARG_OF_PERICENTER = 8.2486
MEAN_ANOMALY   = 351.9313

EPHEMERIS_TYPE = 0
CLASSIFICATION_TYPE = U
NORAD_CAT_ID   = 26474
ELEMENT_SET_NO = 999
REV_AT_EPOCH   = 39640
BSTAR          = .25067E-3
MEAN_MOTION_DOT = .3998E-4
MEAN_MOTION_DDOT = 0

CCSDS_OMM_VERS = 2.0
CREATION_DATE  = 
ORIGINATOR     = 

OBJECT_NAME    = ENVISAT
OBJECT_ID      = 2002-009A
CENTER_NAME    = EARTH
REF_FRAME      = TEME
TIME_SYSTEM    = UTC
MEAN_ELEMENT_THEORY = SGP/SGP4

EPOCH          = 2026-04-01T19:51:22.815360
MEAN_MOTION    = 14.39045053
ECCENTRICITY   = .0001213
INCLINATION    = 98.3767
RA_OF_ASC_NODE = 44.8793
ARG_OF_PERICENTER = 82.1801
MEAN_ANOMALY   = 297.4256

EPHEMERIS_TYPE = 0
CLASSIFICATION_TYPE = U
NORAD_CAT_ID   = 27386
ELEMENT_SET_NO = 999
REV_AT_EPOCH   = 26250
BSTAR          = .59702E-4
MEAN_MOTION_DOT = .142E-5
MEAN_MOTION_DDOT = 0

CCSDS_OMM_VERS = 2.0
CREATION_DATE  = 
ORIGINATOR     = 

OBJECT_NAME    = IDEFIX & ARIANE 42P R/B
OBJECT_ID      = 2002-021B
CENTER_NAME    = EARTH
REF_FRAME      = TEME
TIME_SYSTEM    = UTC
MEAN_ELEMENT_THEORY = SGP/SGP4

EPOCH          = 2026-04-01T13:39:49.652352
MEAN_MOTION    = 14.31041705
ECCENTRICITY   = .0012782
INCLINATION    = 98.5898
RA_OF_ASC_NODE = 29.9058
ARG_OF_PERICENTER = 117.2271
MEAN_ANOMALY   = 243.0216

EPHEMERIS_TYPE = 0
CLASSIFICATION_TYPE = U
NORAD_CAT_ID   = 27422
ELEMENT_SET_NO = 999
REV_AT_EPOCH   = 24729
BSTAR          = .13959E-3
MEAN_MOTION_DOT = .324E-5
MEAN_MOTION_DDOT = 0

